{
  "type": "FeatureCollection",
  "features": [
    {
      "type": "Feature",
      "properties": {
        "norad_id": 28890,
        "name": "BEIJING 1",
        "group": "dmc",
        "lat": 75.96298382476694,
        "lon": -37.557463972446875,
        "alt_km": 670.2319919803531,
        "timestamp": "2025-12-05T09:41:18.788348+00:00",
        "meta_object_name": "BEIJING 1",
        "meta_object_id": "2005-043A",
        "meta_epoch": "2025-12-04T18:27:25.874208",
        "meta_mean_motion": 14.63354511,
        "meta_eccentricity": 0.0014923,
        "meta_inclination": 98.2651,
        "meta_ra_of_asc_node": 106.2575,
        "meta_arg_of_pericenter": 165.5498,
        "meta_mean_anomaly": 194.6133,
        "meta_ephemeris_type": 0,
        "meta_classification_type": "U",
        "meta_norad_cat_id": 28890,
        "meta_element_set_no": 999,
        "meta_rev_at_epoch": 7221,
        "meta_bstar": 0.00016789,
        "meta_mean_motion_dot": 8.2e-06,
        "meta_mean_motion_ddot": 0,
        "tle_line1": "1 28890U 05043A   25338.76904947  .00000820  00000+0  16789-3 0  9999",
        "tle_line2": "2 28890  98.2651 106.2575 0014923 165.5498 194.6133 14.63354511 72215"
      },
      "geometry": {
        "type": "Point",
        "coordinates": [
          -37.557463972446875,
          75.96298382476694
        ]
      }
    },
    {
      "type": "Feature",
      "properties": {
        "norad_id": 33320,
        "name": "HUANJING 1A (HJ-1A)",
        "group": "dmc",
        "lat": -38.519541542620715,
        "lon": -25.84696866754834,
        "alt_km": 626.6905277515461,
        "timestamp": "2025-12-05T09:41:18.788373+00:00",
        "meta_object_name": "HUANJING 1A (HJ-1A)",
        "meta_object_id": "2008-041A",
        "meta_epoch": "2025-12-04T17:40:26.802912",
        "meta_mean_motion": 14.83354932,
        "meta_eccentricity": 0.0020609,
        "meta_inclination": 97.653,
        "meta_ra_of_asc_node": 327.3696,
        "meta_arg_of_pericenter": 59.3492,
        "meta_mean_anomaly": 300.9751,
        "meta_ephemeris_type": 0,
        "meta_classification_type": "U",
        "meta_norad_cat_id": 33320,
        "meta_element_set_no": 999,
        "meta_rev_at_epoch": 92957,
        "meta_bstar": 0.00042685,
        "meta_mean_motion_dot": 3.461e-05,
        "meta_mean_motion_ddot": 0,
        "tle_line1": "1 33320U 08041A   25338.73642133  .00003461  00000+0  42685-3 0  9995",
        "tle_line2": "2 33320  97.6530 327.3696 0020609  59.3492 300.9751 14.83354932929577"
      },
      "geometry": {
        "type": "Point",
        "coordinates": [
          -25.84696866754834,
          -38.519541542620715
        ]
      }
    },
    {
      "type": "Feature",
      "properties": {
        "norad_id": 33321,
        "name": "HUANJING 1B (HJ-1B)",
        "group": "dmc",
        "lat": -17.936336961908584,
        "lon": 149.23518109529797,
        "alt_km": 629.6709093780628,
        "timestamp": "2025-12-05T09:41:18.788388+00:00",
        "meta_object_name": "HUANJING 1B (HJ-1B)",
        "meta_object_id": "2008-041B",
        "meta_epoch": "2025-12-04T18:13:34.358016",
        "meta_mean_motion": 14.82789219,
        "meta_eccentricity": 0.0038222,
        "meta_inclination": 97.6391,
        "meta_ra_of_asc_node": 331.1095,
        "meta_arg_of_pericenter": 101.0469,
        "meta_mean_anomaly": 259.5047,
        "meta_ephemeris_type": 0,
        "meta_classification_type": "U",
        "meta_norad_cat_id": 33321,
        "meta_element_set_no": 999,
        "meta_rev_at_epoch": 92959,
        "meta_bstar": 0.00031985,
        "meta_mean_motion_dot": 2.568e-05,
        "meta_mean_motion_ddot": 0,
        "tle_line1": "1 33321U 08041B   25338.75942544  .00002568  00000+0  31985-3 0  9995",
        "tle_line2": "2 33321  97.6391 331.1095 0038222 101.0469 259.5047 14.82789219929596"
      },
      "geometry": {
        "type": "Point",
        "coordinates": [
          149.23518109529797,
          -17.936336961908584
        ]
      }
    },
    {
      "type": "Feature",
      "properties": {
        "norad_id": 33446,
        "name": "YAOGAN-4",
        "group": "dmc",
        "lat": 65.81468996652652,
        "lon": 107.62605540204471,
        "alt_km": 620.2887883470275,
        "timestamp": "2025-12-05T09:41:18.788414+00:00",
        "meta_object_name": "YAOGAN-4",
        "meta_object_id": "2008-061A",
        "meta_epoch": "2025-12-04T16:59:04.308864",
        "meta_mean_motion": 14.82643182,
        "meta_eccentricity": 0.0014289,
        "meta_inclination": 97.9172,
        "meta_ra_of_asc_node": 268.8863,
        "meta_arg_of_pericenter": 350.1762,
        "meta_mean_anomaly": 9.917,
        "meta_ephemeris_type": 0,
        "meta_classification_type": "U",
        "meta_norad_cat_id": 33446,
        "meta_element_set_no": 999,
        "meta_rev_at_epoch": 91684,
        "meta_bstar": 0.00041256,
        "meta_mean_motion_dot": 3.277e-05,
        "meta_mean_motion_ddot": 0,
        "tle_line1": "1 33446U 08061A   25338.70768876  .00003277  00000+0  41256-3 0  9994",
        "tle_line2": "2 33446  97.9172 268.8863 0014289 350.1762   9.9170 14.82643182916849"
      },
      "geometry": {
        "type": "Point",
        "coordinates": [
          107.62605540204471,
          65.81468996652652
        ]
      }
    },
    {
      "type": "Feature",
      "properties": {
        "norad_id": 35681,
        "name": "DEIMOS-1",
        "group": "dmc",
        "lat": 81.4416092555245,
        "lon": 76.0927771956315,
        "alt_km": 636.0354464786506,
        "timestamp": "2025-12-05T09:41:18.788428+00:00",
        "meta_object_name": "DEIMOS-1",
        "meta_object_id": "2009-041A",
        "meta_epoch": "2025-12-04T17:01:01.499232",
        "meta_mean_motion": 14.7493367,
        "meta_eccentricity": 0.0002693,
        "meta_inclination": 97.7146,
        "meta_ra_of_asc_node": 139.6867,
        "meta_arg_of_pericenter": 94.7346,
        "meta_mean_anomaly": 265.4171,
        "meta_ephemeris_type": 0,
        "meta_classification_type": "U",
        "meta_norad_cat_id": 35681,
        "meta_element_set_no": 999,
        "meta_rev_at_epoch": 87821,
        "meta_bstar": 0.0002052,
        "meta_mean_motion_dot": 1.331e-05,
        "meta_mean_motion_ddot": 0,
        "tle_line1": "1 35681U 09041A   25338.70904513  .00001331  00000+0  20520-3 0  9996",
        "tle_line2": "2 35681  97.7146 139.6867 0002693  94.7346 265.4171 14.74933670878218"
      },
      "geometry": {
        "type": "Point",
        "coordinates": [
          76.0927771956315,
          81.4416092555245
        ]
      }
    },
    {
      "type": "Feature",
      "properties": {
        "norad_id": 35683,
        "name": "UK-DMC 2",
        "group": "dmc",
        "lat": 79.95198440158053,
        "lon": 63.32709803979587,
        "alt_km": 634.9877895453747,
        "timestamp": "2025-12-05T09:41:18.788439+00:00",
        "meta_object_name": "UK-DMC 2",
        "meta_object_id": "2009-041C",
        "meta_epoch": "2025-12-04T17:02:10.008384",
        "meta_mean_motion": 14.75594479,
        "meta_eccentricity": 0.000131,
        "meta_inclination": 97.8557,
        "meta_ra_of_asc_node": 113.8398,
        "meta_arg_of_pericenter": 102.5025,
        "meta_mean_anomaly": 257.6331,
        "meta_ephemeris_type": 0,
        "meta_classification_type": "U",
        "meta_norad_cat_id": 35683,
        "meta_element_set_no": 999,
        "meta_rev_at_epoch": 87788,
        "meta_bstar": 0.00029244,
        "meta_mean_motion_dot": 1.945e-05,
        "meta_mean_motion_ddot": 0,
        "tle_line1": "1 35683U 09041C   25338.70983806  .00001945  00000+0  29244-3 0  9993",
        "tle_line2": "2 35683  97.8557 113.8398 0001310 102.5025 257.6331 14.75594479877881"
      },
      "geometry": {
        "type": "Point",
        "coordinates": [
          63.32709803979587,
          79.95198440158053
        ]
      }
    },
    {
      "type": "Feature",
      "properties": {
        "norad_id": 40715,
        "name": "DMC3-FM1",
        "group": "dmc",
        "lat": -53.14441754637843,
        "lon": 16.50648352968109,
        "alt_km": 620.7451387076817,
        "timestamp": "2025-12-05T09:41:18.788450+00:00",
        "meta_object_name": "DMC3-FM1",
        "meta_object_id": "2015-032A",
        "meta_epoch": "2025-12-04T18:05:19.385376",
        "meta_mean_motion": 14.85419292,
        "meta_eccentricity": 0.0005215,
        "meta_inclination": 97.6698,
        "meta_ra_of_asc_node": 206.2369,
        "meta_arg_of_pericenter": 349.7238,
        "meta_mean_anomaly": 10.387,
        "meta_ephemeris_type": 0,
        "meta_classification_type": "U",
        "meta_norad_cat_id": 40715,
        "meta_element_set_no": 999,
        "meta_rev_at_epoch": 56104,
        "meta_bstar": 0.00019085,
        "meta_mean_motion_dot": 1.593e-05,
        "meta_mean_motion_ddot": 0,
        "tle_line1": "1 40715U 15032A   25338.75369659  .00001593  00000+0  19085-3 0  9992",
        "tle_line2": "2 40715  97.6698 206.2369 0005215 349.7238  10.3870 14.85419292561041"
      },
      "geometry": {
        "type": "Point",
        "coordinates": [
          16.50648352968109,
          -53.14441754637843
        ]
      }
    },
    {
      "type": "Feature",
      "properties": {
        "norad_id": 40716,
        "name": "DMC3-FM2",
        "group": "dmc",
        "lat": 65.19849431957566,
        "lon": 45.27010483260332,
        "alt_km": 608.0623103792905,
        "timestamp": "2025-12-05T09:41:18.788461+00:00",
        "meta_object_name": "DMC3-FM2",
        "meta_object_id": "2015-032B",
        "meta_epoch": "2025-12-04T18:37:43.819968",
        "meta_mean_motion": 14.85420605,
        "meta_eccentricity": 0.0005863,
        "meta_inclination": 97.6755,
        "meta_ra_of_asc_node": 207.6967,
        "meta_arg_of_pericenter": 354.0102,
        "meta_mean_anomaly": 6.1043,
        "meta_ephemeris_type": 0,
        "meta_classification_type": "U",
        "meta_norad_cat_id": 40716,
        "meta_element_set_no": 999,
        "meta_rev_at_epoch": 56104,
        "meta_bstar": 0.00018861,
        "meta_mean_motion_dot": 1.574e-05,
        "meta_mean_motion_ddot": 0,
        "tle_line1": "1 40716U 15032B   25338.77620162  .00001574  00000+0  18861-3 0  9994",
        "tle_line2": "2 40716  97.6755 207.6967 0005863 354.0102   6.1043 14.85420605561048"
      },
      "geometry": {
        "type": "Point",
        "coordinates": [
          45.27010483260332,
          65.19849431957566
        ]
      }
    },
    {
      "type": "Feature",
      "properties": {
        "norad_id": 40717,
        "name": "DMC3-FM3",
        "group": "dmc",
        "lat": -1.8566203598081499,
        "lon": -149.81953166236514,
        "alt_km": 611.9170548736456,
        "timestamp": "2025-12-05T09:41:18.788472+00:00",
        "meta_object_name": "DMC3-FM3",
        "meta_object_id": "2015-032C",
        "meta_epoch": "2025-12-04T19:08:47.790240",
        "meta_mean_motion": 14.85413036,
        "meta_eccentricity": 0.0005222,
        "meta_inclination": 97.681,
        "meta_ra_of_asc_node": 209.3453,
        "meta_arg_of_pericenter": 356.185,
        "meta_mean_anomaly": 3.9325,
        "meta_ephemeris_type": 0,
        "meta_classification_type": "U",
        "meta_norad_cat_id": 40717,
        "meta_element_set_no": 999,
        "meta_rev_at_epoch": 56105,
        "meta_bstar": 0.00015178,
        "meta_mean_motion_dot": 1.256e-05,
        "meta_mean_motion_ddot": 0,
        "tle_line1": "1 40717U 15032C   25338.79777535  .00001256  00000+0  15178-3 0  9999",
        "tle_line2": "2 40717  97.6810 209.3453 0005222 356.1850   3.9325 14.85413036561051"
      },
      "geometry": {
        "type": "Point",
        "coordinates": [
          -149.81953166236514,
          -1.8566203598081499
        ]
      }
    }
  ]
}